start=new Date('2022-07-29T00:00:00.000Z').valueOf();
sats=[{"COUNTRY_CODE":"US","ECCENTRICITY":"0.00037560","TIME_SYSTEM":"UTC","DECAY_DATE":null,"INCLINATION":"53.2145","LAUNCH_DATE":"2022-06-17","OBJECT_TYPE":"PAYLOAD","SEMIMAJOR_AXIS":"6727.862","MEAN_MOTION_DOT":"-0.00047734","REF_FRAME":"TEME","TLE_LINE2":"2 52874  53.2145 200.0001 0003756  11.9447  93.4684 15.73211759  1307","CLASSIFICATION_TYPE":"U","FILE":"3524113","RCS_SIZE":"LARGE","MEAN_ELEMENT_THEORY":"SGP4","TLE_LINE1":"1 52874U 22062AW  22209.91667824 -.00047734  00000-0 -33727-3 0  9998","CENTER_NAME":"EARTH","MEAN_ANOMALY":"93.4684","ARG_OF_PERICENTER":"11.9447","APOAPSIS":"352.254","OBJECT_NAME":"STARLINK-4210","OBJECT_ID":"2022-062AW","BSTAR":"-0.00033727000000","EPOCH":"2022-07-28T22:00:00.999936","SITE":"AFETR","MEAN_MOTION_DDOT":"0.0000000000000","REV_AT_EPOCH":"130","GP_ID":"209069604","NORAD_CAT_ID":"52874","ELEMENT_SET_NO":"999","RA_OF_ASC_NODE":"200.0001","MEAN_MOTION":"15.73211759","PERIAPSIS":"347.200","PERIOD":"91.532","EPHEMERIS_TYPE":"0"},{"MEAN_MOTION":"15.73145936","PERIAPSIS":"347.693","RA_OF_ASC_NODE":"199.9968","PERIOD":"91.536","EPHEMERIS_TYPE":"0","NORAD_CAT_ID":"52875","GP_ID":"209069351","ELEMENT_SET_NO":"999","SITE":"AFETR","EPOCH":"2022-07-28T22:00:00.999936","REV_AT_EPOCH":"130","MEAN_MOTION_DDOT":"0.0000000000000","APOAPSIS":"352.136","OBJECT_NAME":"STARLINK-4193","OBJECT_ID":"2022-062AX","BSTAR":"0.00045959000000","MEAN_ANOMALY":"95.5880","ARG_OF_PERICENTER":"12.1257","CENTER_NAME":"EARTH","TLE_LINE1":"1 52875U 22062AX  22209.91667824  .00064238  00000-0  45959-3 0  9995","MEAN_ELEMENT_THEORY":"SGP4","RCS_SIZE":"LARGE","MEAN_MOTION_DOT":"0.00064238","OBJECT_TYPE":"PAYLOAD","LAUNCH_DATE":"2022-06-17","SEMIMAJOR_AXIS":"6728.049","CLASSIFICATION_TYPE":"U","FILE":"3524113","REF_FRAME":"TEME","TLE_LINE2":"2 52875  53.2146 199.9968 0003302  12.1257  95.5880 15.73145936  1300","INCLINATION":"53.2146","ECCENTRICITY":"0.00033020","COUNTRY_CODE":"US","DECAY_DATE":null,"TIME_SYSTEM":"UTC"},{"REF_FRAME":"TEME","TLE_LINE2":"2 52876  53.2148 199.5866 0003461  11.3112 207.4730 15.73202155  7023","FILE":"3524078","CLASSIFICATION_TYPE":"U","OBJECT_TYPE":"PAYLOAD","LAUNCH_DATE":"2022-06-17","SEMIMAJOR_AXIS":"6727.889","MEAN_MOTION_DOT":"0.00035822","ECCENTRICITY":"0.00034610","COUNTRY_CODE":"US","DECAY_DATE":null,"TIME_SYSTEM":"UTC","INCLINATION":"53.2148","CENTER_NAME":"EARTH","MEAN_ANOMALY":"207.4730","ARG_OF_PERICENTER":"11.3112","RCS_SIZE":"LARGE","TLE_LINE1":"1 52876U 22062AY  22210.00001157  .00035822  00000-0  25849-3 0  9992","MEAN_ELEMENT_THEORY":"SGP4","MEAN_MOTION_DDOT":"0.0000000000000","REV_AT_EPOCH":"702","EPOCH":"2022-07-29T00:00:00.999648","SITE":"AFETR","BSTAR":"0.00025849000000","APOAPSIS":"352.083","OBJECT_NAME":"STARLINK-4200","OBJECT_ID":"2022-062AY","PERIOD":"91.533","EPHEMERIS_TYPE":"0","RA_OF_ASC_NODE":"199.5866","PERIAPSIS":"347.426","MEAN_MOTION":"15.73202155","ELEMENT_SET_NO":"999","NORAD_CAT_ID":"52876","GP_ID":"209043543"},{"INCLINATION":"53.2131","COUNTRY_CODE":"US","ECCENTRICITY":"0.00029570","TIME_SYSTEM":"UTC","DECAY_DATE":null,"FILE":"3524078","CLASSIFICATION_TYPE":"U","REF_FRAME":"TEME","TLE_LINE2":"2 52877  53.2131 199.5821 0002957  11.8042 209.3917 15.73197788  7026","MEAN_MOTION_DOT":"0.00001118","OBJECT_TYPE":"PAYLOAD","LAUNCH_DATE":"2022-06-17","SEMIMAJOR_AXIS":"6727.901","TLE_LINE1":"1 52877U 22062AZ  22210.00001157  .00001118  00000-0  12403-4 0  9997","MEAN_ELEMENT_THEORY":"SGP4","RCS_SIZE":"LARGE","MEAN_ANOMALY":"209.3917","ARG_OF_PERICENTER":"11.8042","CENTER_NAME":"EARTH","BSTAR":"0.00001240300000","APOAPSIS":"351.756","OBJECT_NAME":"STARLINK-4214","OBJECT_ID":"2022-062AZ","REV_AT_EPOCH":"702","MEAN_MOTION_DDOT":"0.0000000000000","SITE":"AFETR","EPOCH":"2022-07-29T00:00:00.999648","ELEMENT_SET_NO":"999","NORAD_CAT_ID":"52877","GP_ID":"209043772","PERIOD":"91.533","EPHEMERIS_TYPE":"0","MEAN_MOTION":"15.73197788","PERIAPSIS":"347.777","RA_OF_ASC_NODE":"199.5821"},{"INCLINATION":"53.2146","ECCENTRICITY":"0.00032320","COUNTRY_CODE":"US","TIME_SYSTEM":"UTC","DECAY_DATE":null,"MEAN_MOTION_DOT":"0.00065695","LAUNCH_DATE":"2022-06-17","OBJECT_TYPE":"PAYLOAD","SEMIMAJOR_AXIS":"6728.039","CLASSIFICATION_TYPE":"U","FILE":"3524113","REF_FRAME":"TEME","TLE_LINE2":"2 52878  53.2146 199.9953 0003232   7.2876 101.0347 15.73149391  1301","MEAN_ELEMENT_THEORY":"SGP4","TLE_LINE1":"1 52878U 22062BA  22209.91667824  .00065695  00000-0  46977-3 0  9997","RCS_SIZE":"LARGE","MEAN_ANOMALY":"101.0347","ARG_OF_PERICENTER":"7.2876","CENTER_NAME":"EARTH","APOAPSIS":"352.079","OBJECT_ID":"2022-062BA","OBJECT_NAME":"STARLINK-4171","BSTAR":"0.00046977000000","SITE":"AFETR","EPOCH":"2022-07-28T22:00:00.999936","REV_AT_EPOCH":"130","MEAN_MOTION_DDOT":"0.0000000000000","NORAD_CAT_ID":"52878","GP_ID":"209069221","ELEMENT_SET_NO":"999","MEAN_MOTION":"15.73149391","PERIAPSIS":"347.730","RA_OF_ASC_NODE":"199.9953","PERIOD":"91.536","EPHEMERIS_TYPE":"0"},{"RCS_SIZE":"LARGE","TLE_LINE1":"1 52879U 22062BB  22209.91667824 -.00016540  00000-0 -11360-3 0  9993","MEAN_ELEMENT_THEORY":"SGP4","CENTER_NAME":"EARTH","MEAN_ANOMALY":"97.5576","ARG_OF_PERICENTER":"13.2046","ECCENTRICITY":"0.00031590","COUNTRY_CODE":"US","TIME_SYSTEM":"UTC","DECAY_DATE":null,"INCLINATION":"53.2130","LAUNCH_DATE":"2022-06-17","OBJECT_TYPE":"PAYLOAD","SEMIMAJOR_AXIS":"6727.890","MEAN_MOTION_DOT":"-0.00016540","REF_FRAME":"TEME","TLE_LINE2":"2 52879  53.2130 199.9908 0003159  13.2046  97.5576 15.73201640  1308","FILE":"3524113","CLASSIFICATION_TYPE":"U","NORAD_CAT_ID":"52879","GP_ID":"209068968","ELEMENT_SET_NO":"999","RA_OF_ASC_NODE":"199.9908","MEAN_MOTION":"15.73201640","PERIAPSIS":"347.630","PERIOD":"91.533","EPHEMERIS_TYPE":"0","APOAPSIS":"351.881","OBJECT_NAME":"STARLINK-4139","OBJECT_ID":"2022-062BB","BSTAR":"-0.00011360000000","EPOCH":"2022-07-28T22:00:00.999936","SITE":"AFETR","MEAN_MOTION_DDOT":"0.0000000000000","REV_AT_EPOCH":"130"},{"CENTER_NAME":"EARTH","ARG_OF_PERICENTER":"10.8540","MEAN_ANOMALY":"211.5511","RCS_SIZE":"MEDIUM","MEAN_ELEMENT_THEORY":"SGP4","TLE_LINE1":"1 52880U 22062BC  22210.00001157 -.00051181  00000-0 -36179-3 0  9993","SEMIMAJOR_AXIS":"6727.795","LAUNCH_DATE":"2022-06-17","OBJECT_TYPE":"PAYLOAD","MEAN_MOTION_DOT":"-0.00051181","TLE_LINE2":"2 52880  53.2147 199.5787 0003095  10.8540 211.5511 15.73235265  7022","REF_FRAME":"TEME","FILE":"3524078","CLASSIFICATION_TYPE":"U","TIME_SYSTEM":"UTC","DECAY_DATE":null,"ECCENTRICITY":"0.00030950","COUNTRY_CODE":"US","INCLINATION":"53.2147","RA_OF_ASC_NODE":"199.5787","MEAN_MOTION":"15.73235265","PERIAPSIS":"347.577","EPHEMERIS_TYPE":"0","PERIOD":"91.531","NORAD_CAT_ID":"52880","GP_ID":"209043771","ELEMENT_SET_NO":"999","EPOCH":"2022-07-29T00:00:00.999648","SITE":"AFETR","MEAN_MOTION_DDOT":"0.0000000000000","REV_AT_EPOCH":"702","OBJECT_ID":"2022-062BC","OBJECT_NAME":"STARLINK-4186","APOAPSIS":"351.742","BSTAR":"-0.00036179000000"},{"MEAN_ANOMALY":"211.8345","ARG_OF_PERICENTER":"9.9580","CENTER_NAME":"EARTH","TLE_LINE1":"1 52881U 22062BD  22210.00001157  .00036907  00000-0  26636-3 0  9998","MEAN_ELEMENT_THEORY":"SGP4","RCS_SIZE":"LARGE","MEAN_MOTION_DOT":"0.00036907","LAUNCH_DATE":"2022-06-17","OBJECT_TYPE":"PAYLOAD","SEMIMAJOR_AXIS":"6727.940","FILE":"3524082","CLASSIFICATION_TYPE":"U","REF_FRAME":"TEME","TLE_LINE2":"2 52881  53.2133 199.5826 0003240   9.9580 211.8345 15.73184390  7027","INCLINATION":"53.2133","COUNTRY_CODE":"US","ECCENTRICITY":"0.00032400","TIME_SYSTEM":"UTC","DECAY_DATE":null,"PERIAPSIS":"347.625","MEAN_MOTION":"15.73184390","RA_OF_ASC_NODE":"199.5826","PERIOD":"91.534","EPHEMERIS_TYPE":"0","NORAD_CAT_ID":"52881","GP_ID":"209044131","ELEMENT_SET_NO":"999","SITE":"AFETR","EPOCH":"2022-07-29T00:00:00.999648","REV_AT_EPOCH":"702","MEAN_MOTION_DDOT":"0.0000000000000","APOAPSIS":"351.985","OBJECT_NAME":"STARLINK-4192","OBJECT_ID":"2022-062BD","BSTAR":"0.00026636000000"},{"ELEMENT_SET_NO":"999","GP_ID":"209043767","NORAD_CAT_ID":"52882","PERIOD":"91.527","EPHEMERIS_TYPE":"0","RA_OF_ASC_NODE":"199.5802","MEAN_MOTION":"15.73301043","PERIAPSIS":"347.292","BSTAR":"0.00002792900000","APOAPSIS":"351.652","OBJECT_ID":"2022-062BE","OBJECT_NAME":"STARLINK-4181","MEAN_MOTION_DDOT":"0.0000000000000","REV_AT_EPOCH":"702","EPOCH":"2022-07-29T00:00:00.999648","SITE":"AFETR","RCS_SIZE":"LARGE","TLE_LINE1":"1 52882U 22062BE  22210.00001157  .00003315  00000-0  27929-4 0  9993","MEAN_ELEMENT_THEORY":"SGP4","CENTER_NAME":"EARTH","MEAN_ANOMALY":"207.4175","ARG_OF_PERICENTER":"15.8464","ECCENTRICITY":"0.00032400","COUNTRY_CODE":"US","DECAY_DATE":null,"TIME_SYSTEM":"UTC","INCLINATION":"53.2135","REF_FRAME":"TEME","TLE_LINE2":"2 52882  53.2135 199.5802 0003240  15.8464 207.4175 15.73301043  7029","CLASSIFICATION_TYPE":"U","FILE":"3524078","LAUNCH_DATE":"2022-06-17","OBJECT_TYPE":"PAYLOAD","SEMIMAJOR_AXIS":"6727.607","MEAN_MOTION_DOT":"0.00003315"},{"BSTAR":"0.00037487000000","APOAPSIS":"351.209","OBJECT_ID":"2022-076A","OBJECT_NAME":"STARLINK-4260","MEAN_MOTION_DDOT":"0.0000000000000","REV_AT_EPOCH":"387","EPOCH":"2022-07-29T00:00:00.999648","SITE":"AFETR","ELEMENT_SET_NO":"999","GP_ID":"209044304","NORAD_CAT_ID":"52986","PERIOD":"91.534","EPHEMERIS_TYPE":"0","RA_OF_ASC_NODE":"273.4323","PERIAPSIS":"348.345","MEAN_MOTION":"15.73194031","COUNTRY_CODE":"US","ECCENTRICITY":"0.00021280","TIME_SYSTEM":"UTC","DECAY_DATE":null,"INCLINATION":"53.2192","REF_FRAME":"TEME","TLE_LINE2":"2 52986  53.2192 273.4323 0002128  33.2532  35.4313 15.73194031  3870","FILE":"3524094","CLASSIFICATION_TYPE":"U","LAUNCH_DATE":"2022-07-07","OBJECT_TYPE":"PAYLOAD","SEMIMAJOR_AXIS":"6727.912","MEAN_MOTION_DOT":"0.00052307","RCS_SIZE":"LARGE","TLE_LINE1":"1 52986U 22076A   22210.00001157  .00052307  00000-0  37487-3 0  9997","MEAN_ELEMENT_THEORY":"SGP4","CENTER_NAME":"EARTH","MEAN_ANOMALY":"35.4313","ARG_OF_PERICENTER":"33.2532"}];
